{
    "links": {
        "self": "http://www.neowsapp.com/rest/v1/neo/3177213?api_key=iIulBulltgU6a56xZRHN4H3l9WmuAYTsLGpBGhQ2"
    },
    "id": "3177213",
    "neo_reference_id": "3177213",
    "name": "(2004 FM4)",
    "designation": "2004 FM4",
    "nasa_jpl_url": "http://ssd.jpl.nasa.gov/sbdb.cgi?sstr=3177213",
    "absolute_magnitude_h": 25.1,
    "estimated_diameter": {
        "kilometers": {
            "estimated_diameter_min": 0.0253837029,
            "estimated_diameter_max": 0.0567596853
        },
        "meters": {
            "estimated_diameter_min": 25.3837029364,
            "estimated_diameter_max": 56.7596852866
        },
        "miles": {
            "estimated_diameter_min": 0.0157726969,
            "estimated_diameter_max": 0.0352688224
        },
        "feet": {
            "estimated_diameter_min": 83.279867942,
            "estimated_diameter_max": 186.2194458756
        }
    },
    "is_potentially_hazardous_asteroid": false,
    "close_approach_data": [
        {
            "close_approach_date": "2003-11-06",
            "close_approach_date_full": "2003-Nov-06 20:08",
            "epoch_date_close_approach": 1068149280000,
            "relative_velocity": {
                "kilometers_per_second": "16.5706946263",
                "kilometers_per_hour": "59654.5006547657",
                "miles_per_hour": "37066.9868096237"
            },
            "miss_distance": {
                "astronomical": "0.0270927432",
                "lunar": "10.5390771048",
                "kilometers": "4053016.675176984",
                "miles": "2518427.7809070192"
            },
            "orbiting_body": "Mars"
        },
        {
            "close_approach_date": "2004-03-14",
            "close_approach_date_full": "2004-Mar-14 08:08",
            "epoch_date_close_approach": 1079251680000,
            "relative_velocity": {
                "kilometers_per_second": "13.7665495423",
                "kilometers_per_hour": "49559.5783524031",
                "miles_per_hour": "30794.3946712474"
            },
            "miss_distance": {
                "astronomical": "0.0179194231",
                "lunar": "6.9706555859",
                "kilometers": "2680707.527388797",
                "miles": "1665714.4173155186"
            },
            "orbiting_body": "Earth"
        }
    ],
    "orbital_data": {
        "orbit_id": "8",
        "orbit_determination_date": "2017-04-06 09:13:03",
        "first_observation_date": "2004-03-19",
        "last_observation_date": "2004-03-31",
        "data_arc_in_days": 12,
        "observations_used": 26,
        "orbit_uncertainty": "9",
        "minimum_orbit_intersection": ".0109418",
        "jupiter_tisserand_invariant": "3.574",
        "epoch_osculation": "2453087.5",
        "eccentricity": ".593017478060721",
        "semi_major_axis": "2.023981915450108",
        "inclination": "2.685447981786825",
        "ascending_node_longitude": "186.0435658555282",
        "orbital_period": "1051.73994433627",
        "perihelion_distance": ".8237252643093775",
        "perihelion_argument": "289.0009491809421",
        "aphelion_distance": "3.224238566590838",
        "perihelion_time": "2453038.791845638277",
        "mean_anomaly": "16.67231112086952",
        "mean_motion": ".3422899376776911",
        "equinox": "J2000",
        "orbit_class": {
            "orbit_class_type": "APO",
            "orbit_class_description": "Near-Earth asteroid orbits which cross the Earth’s orbit similar to that of 1862 Apollo",
            "orbit_class_range": "a (semi-major axis) > 1.0 AU; q (perihelion) < 1.017 AU"
        }
    },
    "is_sentry_object": false
}